IRIDIUM 116             
1 43072U 17083C   24350.83443431  .00000323  00000+0  10823-3 0  9993
2 43072  86.3992 191.1745 0001838  92.4512 267.6894 14.34218627365572
IRIDIUM 130             
1 43073U 17083D   24351.29110066  .00000535  00000+0  18399-3 0  9991
2 43073  86.3998 191.2054 0001802  85.5298 274.6103 14.34218975365586
IRIDIUM 151             
1 43074U 17083E   24351.26573914  .00000537  00000+0  18472-3 0  9998
2 43074  86.3993 191.0398 0002065  91.8090 268.3342 14.34218932365604
IRIDIUM 134             
1 43075U 17083F   24351.02471248  .00000570  00000+0  19642-3 0  9997
2 43075  86.3993 191.1409 0001828  87.7737 272.3668 14.34219514365532
IRIDIUM 137             
1 43076U 17083G   24351.31646983  .00000252  00000+0  82761-4 0  9990
2 43076  86.3994 191.1004 0002046 103.5748 256.5676 14.34220888365648
IRIDIUM 141             
1 43077U 17083H   24351.10082266  .00000255  00000+0  84140-4 0  9992
2 43077  86.3988 191.0525 0002170  79.0102 281.1338 14.34219924365613
IRIDIUM 153             
1 43078U 17083J   24350.91346550  .00000029  00000+0  32431-5 0  9996
2 43078  86.3987 159.6573 0002431  79.2644 280.8826 14.34217837366697
IRIDIUM 131             
1 43079U 17083K   24350.80906474  .00000567  00000+0  19544-3 0  9997
2 43079  86.3996 191.3235 0002153  87.3908 272.7535 14.34219491365504
